[{"OBJECT_NAME":"STARLINK-11256 [DTC]","OBJECT_ID":"2024-154B","EPOCH":"2026-01-14T11:24:13.004928","MEAN_MOTION":15.6971566,"ECCENTRICITY":0.00010891,"INCLINATION":53.1587,"RA_OF_ASC_NODE":38.2093,"ARG_OF_PERICENTER":130.2129,"MEAN_ANOMALY":229.8985,"EPHEMERIS_TYPE":0,"CLASSIFICATION_TYPE":"U","NORAD_CAT_ID":60904,"ELEMENT_SET_NO":999,"REV_AT_EPOCH":8000,"BSTAR":-2.388381e-6,"MEAN_MOTION_DOT":-8.78e-6,"MEAN_MOTION_DDOT":0},{"OBJECT_NAME":"STARLINK-11159 [DTC]","OBJECT_ID":"2024-154C","EPOCH":"2026-01-14T18:48:39.864672","MEAN_MOTION":15.69708185,"ECCENTRICITY":0.0001067,"INCLINATION":53.1594,"RA_OF_ASC_NODE":37.3119,"ARG_OF_PERICENTER":86.135,"MEAN_ANOMALY":273.979,"EPHEMERIS_TYPE":0,"CLASSIFICATION_TYPE":"U","NORAD_CAT_ID":60905,"ELEMENT_SET_NO":999,"REV_AT_EPOCH":8004,"BSTAR":2.1653e-6,"MEAN_MOTION_DOT":-3.26e-6,"MEAN_MOTION_DDOT":0},{"OBJECT_NAME":"STARLINK-11264 [DTC]","OBJECT_ID":"2024-154D","EPOCH":"2026-01-14T07:59:48.826464","MEAN_MOTION":15.69705521,"ECCENTRICITY":4.94e-5,"INCLINATION":53.1599,"RA_OF_ASC_NODE":39.4769,"ARG_OF_PERICENTER":64.2996,"MEAN_ANOMALY":295.8073,"EPHEMERIS_TYPE":0,"CLASSIFICATION_TYPE":"U","NORAD_CAT_ID":60906,"ELEMENT_SET_NO":999,"REV_AT_EPOCH":7997,"BSTAR":7.728617e-6,"MEAN_MOTION_DOT":3.49e-6,"MEAN_MOTION_DDOT":0},{"OBJECT_NAME":"STARLINK-11226 [DTC]","OBJECT_ID":"2024-154E","EPOCH":"2026-01-14T07:52:45.124320","MEAN_MOTION":15.69704881,"ECCENTRICITY":0.00011317,"INCLINATION":53.1584,"RA_OF_ASC_NODE":39.4441,"ARG_OF_PERICENTER":79.7999,"MEAN_ANOMALY":280.3147,"EPHEMERIS_TYPE":0,"CLASSIFICATION_TYPE":"U","NORAD_CAT_ID":60907,"ELEMENT_SET_NO":999,"REV_AT_EPOCH":7997,"BSTAR":-1.095252e-6,"MEAN_MOTION_DOT":-7.21e-6,"MEAN_MOTION_DDOT":0},{"OBJECT_NAME":"STARLINK-11229 [DTC]","OBJECT_ID":"2024-154F","EPOCH":"2026-01-14T18:27:28.239840","MEAN_MOTION":15.69699532,"ECCENTRICITY":9.76e-5,"INCLINATION":53.1586,"RA_OF_ASC_NODE":37.2121,"ARG_OF_PERICENTER":77.8545,"MEAN_ANOMALY":282.2582,"EPHEMERIS_TYPE":0,"CLASSIFICATION_TYPE":"U","NORAD_CAT_ID":60908,"ELEMENT_SET_NO":999,"REV_AT_EPOCH":8004,"BSTAR":2.1096e-5,"MEAN_MOTION_DOT":1.967e-5,"MEAN_MOTION_DDOT":0},{"OBJECT_NAME":"STARLINK-11265 [DTC]","OBJECT_ID":"2024-154G","EPOCH":"2026-01-14T18:55:43.908096","MEAN_MOTION":15.69705303,"ECCENTRICITY":0.0001621,"INCLINATION":53.1593,"RA_OF_ASC_NODE":37.3437,"ARG_OF_PERICENTER":66.7195,"MEAN_ANOMALY":293.3993,"EPHEMERIS_TYPE":0,"CLASSIFICATION_TYPE":"U","NORAD_CAT_ID":60909,"ELEMENT_SET_NO":999,"REV_AT_EPOCH":8004,"BSTAR":3.6746e-7,"MEAN_MOTION_DOT":-5.45e-6,"MEAN_MOTION_DDOT":0},{"OBJECT_NAME":"STARLINK-11250 [DTC]","OBJECT_ID":"2024-154H","EPOCH":"2026-01-15T01:58:49.276992","MEAN_MOTION":15.69705973,"ECCENTRICITY":8.49e-5,"INCLINATION":53.1577,"RA_OF_ASC_NODE":35.61,"ARG_OF_PERICENTER":66.243,"MEAN_ANOMALY":293.8677,"EPHEMERIS_TYPE":0,"CLASSIFICATION_TYPE":"U","NORAD_CAT_ID":60910,"ELEMENT_SET_NO":999,"REV_AT_EPOCH":8009,"BSTAR":1.0146e-5,"MEAN_MOTION_DOT":6.41e-6,"MEAN_MOTION_DDOT":0},{"OBJECT_NAME":"STARLINK-11190 [DTC]","OBJECT_ID":"2024-154J","EPOCH":"2026-01-15T01:51:45.356256","MEAN_MOTION":15.69702519,"ECCENTRICITY":0.0001257,"INCLINATION":53.158,"RA_OF_ASC_NODE":35.5766,"ARG_OF_PERICENTER":67.3486,"MEAN_ANOMALY":292.7665,"EPHEMERIS_TYPE":0,"CLASSIFICATION_TYPE":"U","NORAD_CAT_ID":60911,"ELEMENT_SET_NO":999,"REV_AT_EPOCH":8008,"BSTAR":2.4146e-5,"MEAN_MOTION_DOT":2.336e-5,"MEAN_MOTION_DDOT":0},{"OBJECT_NAME":"STARLINK-11225 [DTC]","OBJECT_ID":"2024-154K","EPOCH":"2026-01-15T01:44:41.686080","MEAN_MOTION":15.6971199,"ECCENTRICITY":0.0001085,"INCLINATION":53.1595,"RA_OF_ASC_NODE":35.5441,"ARG_OF_PERICENTER":116.0887,"MEAN_ANOMALY":244.0243,"EPHEMERIS_TYPE":0,"CLASSIFICATION_TYPE":"U","NORAD_CAT_ID":60912,"ELEMENT_SET_NO":999,"REV_AT_EPOCH":8008,"BSTAR":1.4992e-6,"MEAN_MOTION_DOT":-4.07e-6,"MEAN_MOTION_DDOT":0},{"OBJECT_NAME":"STARLINK-11273 [DTC]","OBJECT_ID":"2024-154L","EPOCH":"2026-01-14T07:17:25.963008","MEAN_MOTION":15.69696952,"ECCENTRICITY":0.00014274,"INCLINATION":53.1611,"RA_OF_ASC_NODE":39.2791,"ARG_OF_PERICENTER":107.6474,"MEAN_ANOMALY":252.4699,"EPHEMERIS_TYPE":0,"CLASSIFICATION_TYPE":"U","NORAD_CAT_ID":60913,"ELEMENT_SET_NO":999,"REV_AT_EPOCH":7996,"BSTAR":1.811603e-5,"MEAN_MOTION_DOT":1.605e-5,"MEAN_MOTION_DDOT":0},{"OBJECT_NAME":"STARLINK-11271 [DTC]","OBJECT_ID":"2024-154N","EPOCH":"2026-01-15T01:23:29.898816","MEAN_MOTION":15.6971193,"ECCENTRICITY":5.32e-5,"INCLINATION":53.1589,"RA_OF_ASC_NODE":35.4457,"ARG_OF_PERICENTER":97.4222,"MEAN_ANOMALY":262.6857,"EPHEMERIS_TYPE":0,"CLASSIFICATION_TYPE":"U","NORAD_CAT_ID":60915,"ELEMENT_SET_NO":999,"REV_AT_EPOCH":8008,"BSTAR":3.6576e-6,"MEAN_MOTION_DOT":-1.45e-6,"MEAN_MOTION_DDOT":0},{"OBJECT_NAME":"STARLINK-32371","OBJECT_ID":"2024-154P","EPOCH":"2026-01-14T17:33:09.438336","MEAN_MOTION":15.3020171,"ECCENTRICITY":0.0001302,"INCLINATION":53.1609,"RA_OF_ASC_NODE":174.4766,"ARG_OF_PERICENTER":92.5106,"MEAN_ANOMALY":267.6044,"EPHEMERIS_TYPE":0,"CLASSIFICATION_TYPE":"U","NORAD_CAT_ID":60916,"ELEMENT_SET_NO":999,"REV_AT_EPOCH":7807,"BSTAR":6.7931e-5,"MEAN_MOTION_DOT":1.653e-5,"MEAN_MOTION_DDOT":0},{"OBJECT_NAME":"STARLINK-32369","OBJECT_ID":"2024-154Q","EPOCH":"2026-01-14T20:13:55.407360","MEAN_MOTION":15.3019092,"ECCENTRICITY":0.0001117,"INCLINATION":53.1607,"RA_OF_ASC_NODE":173.7511,"ARG_OF_PERICENTER":85.4752,"MEAN_ANOMALY":274.6376,"EPHEMERIS_TYPE":0,"CLASSIFICATION_TYPE":"U","NORAD_CAT_ID":60917,"ELEMENT_SET_NO":999,"REV_AT_EPOCH":7809,"BSTAR":2.6597e-5,"MEAN_MOTION_DOT":4.29e-6,"MEAN_MOTION_DDOT":0},{"OBJECT_NAME":"STARLINK-32317","OBJECT_ID":"2024-154R","EPOCH":"2026-01-14T19:43:40.407744","MEAN_MOTION":15.30246882,"ECCENTRICITY":8.34e-5,"INCLINATION":53.1593,"RA_OF_ASC_NODE":174.3362,"ARG_OF_PERICENTER":75.8215,"MEAN_ANOMALY":284.2878,"EPHEMERIS_TYPE":0,"CLASSIFICATION_TYPE":"U","NORAD_CAT_ID":60918,"ELEMENT_SET_NO":999,"REV_AT_EPOCH":7808,"BSTAR":-0.00039404,"MEAN_MOTION_DOT":-0.00012027,"MEAN_MOTION_DDOT":0},{"OBJECT_NAME":"STARLINK-32367","OBJECT_ID":"2024-154S","EPOCH":"2026-01-14T19:57:12.558240","MEAN_MOTION":15.30186991,"ECCENTRICITY":0.0001181,"INCLINATION":53.1601,"RA_OF_ASC_NODE":173.6805,"ARG_OF_PERICENTER":93.9097,"MEAN_ANOMALY":266.2039,"EPHEMERIS_TYPE":0,"CLASSIFICATION_TYPE":"U","NORAD_CAT_ID":60919,"ELEMENT_SET_NO":999,"REV_AT_EPOCH":7809,"BSTAR":1.4939e-5,"MEAN_MOTION_DOT":8.3e-7,"MEAN_MOTION_DDOT":0},{"OBJECT_NAME":"STARLINK-32345","OBJECT_ID":"2024-154T","EPOCH":"2026-01-14T10:20:53.862144","MEAN_MOTION":15.30196818,"ECCENTRICITY":0.00010017,"INCLINATION":53.1598,"RA_OF_ASC_NODE":176.1598,"ARG_OF_PERICENTER":85.9442,"MEAN_ANOMALY":274.1674,"EPHEMERIS_TYPE":0,"CLASSIFICATION_TYPE":"U","NORAD_CAT_ID":60920,"ELEMENT_SET_NO":999,"REV_AT_EPOCH":7803,"BSTAR":0.00010705716,"MEAN_MOTION_DOT":2.813e-5,"MEAN_MOTION_DDOT":0}]
