STARLINK-11256 [DTC]    
1 60904U 24154B   26014.47515052 -.00000878  00000+0 -23884-5 0  9991
2 60904  53.1587  38.2093 0001089 130.2129 229.8985 15.69715660 80008
STARLINK-11159 [DTC]    
1 60905U 24154C   26014.78379473 -.00000326  00000+0  21653-5 0  9990
2 60905  53.1594  37.3119 0001067  86.1350 273.9790 15.69708185 80049
STARLINK-11264 [DTC]    
1 60906U 24154D   26014.33320401  .00000349  00000+0  77286-5 0  9996
2 60906  53.1599  39.4769 0000494  64.2996 295.8073 15.69705521 79973
STARLINK-11226 [DTC]    
1 60907U 24154E   26014.32830005 -.00000721  00000+0 -10953-5 0  9996
2 60907  53.1584  39.4441 0001131  79.7999 280.3147 15.69704881 79977
STARLINK-11229 [DTC]    
1 60908U 24154F   26014.76907685  .00001967  00000+0  21096-4 0  9994
2 60908  53.1586  37.2121 0000976  77.8545 282.2582 15.69699532 80043
STARLINK-11265 [DTC]    
1 60909U 24154G   26014.78870264 -.00000545  00000+0  36746-6 0  9991
2 60909  53.1593  37.3437 0001621  66.7195 293.3993 15.69705303 80042
STARLINK-11250 [DTC]    
1 60910U 24154H   26015.08251478  .00000641  00000+0  10146-4 0  9997
2 60910  53.1577  35.6100 0000849  66.2430 293.8677 15.69705973 80094
STARLINK-11190 [DTC]    
1 60911U 24154J   26015.07760829  .00002336  00000+0  24146-4 0  9990
2 60911  53.1580  35.5766 0001257  67.3486 292.7665 15.69702519 80080
STARLINK-11225 [DTC]    
1 60912U 24154K   26015.07270470 -.00000407  00000+0  14992-5 0  9996
2 60912  53.1595  35.5441 0001085 116.0887 244.0243 15.69711990 80088
STARLINK-11273 [DTC]    
1 60913U 24154L   26014.30377272  .00001605  00000+0  18116-4 0  9991
2 60913  53.1611  39.2791 0001427 107.6474 252.4699 15.69696952 79968
STARLINK-11271 [DTC]    
1 60915U 24154N   26015.05798494 -.00000145  00000+0  36576-5 0  9999
2 60915  53.1589  35.4457 0000532  97.4222 262.6857 15.69711930 80082
STARLINK-32371          
1 60916U 24154P   26014.73135924  .00001653  00000+0  67931-4 0  9999
2 60916  53.1609 174.4766 0001302  92.5106 267.6044 15.30201710 78073
STARLINK-32369          
1 60917U 24154Q   26014.84300240  .00000429  00000+0  26597-4 0  9990
2 60917  53.1607 173.7511 0001117  85.4752 274.6376 15.30190920 78092
STARLINK-32317          
1 60918U 24154R   26014.82199546 -.00012027  00000+0 -39404-3 0  9993
2 60918  53.1593 174.3362 0000834  75.8215 284.2878 15.30246882 78082
STARLINK-32367          
1 60919U 24154S   26014.83139535  .00000083  00000+0  14939-4 0  9991
2 60919  53.1601 173.6805 0001181  93.9097 266.2039 15.30186991 78096
STARLINK-32345          
1 60920U 24154T   26014.43117896  .00002813  00000+0  10706-3 0  9995
2 60920  53.1598 176.1598 0001001  85.9442 274.1674 15.30196818 78032
